{
    "links": {
        "self": "http://www.neowsapp.com/rest/v1/neo/3584586?api_key=iIulBulltgU6a56xZRHN4H3l9WmuAYTsLGpBGhQ2"
    },
    "id": "3584586",
    "neo_reference_id": "3584586",
    "name": "(2011 UA276)",
    "designation": "2011 UA276",
    "nasa_jpl_url": "http://ssd.jpl.nasa.gov/sbdb.cgi?sstr=3584586",
    "absolute_magnitude_h": 24.9,
    "estimated_diameter": {
        "kilometers": {
            "estimated_diameter_min": 0.0278326768,
            "estimated_diameter_max": 0.0622357573
        },
        "meters": {
            "estimated_diameter_min": 27.8326768072,
            "estimated_diameter_max": 62.2357573367
        },
        "miles": {
            "estimated_diameter_min": 0.0172944182,
            "estimated_diameter_max": 0.0386714948
        },
        "feet": {
            "estimated_diameter_min": 91.3145593761,
            "estimated_diameter_max": 204.1855621004
        }
    },
    "is_potentially_hazardous_asteroid": false,
    "close_approach_data": [
        {
            "close_approach_date": "2011-11-10",
            "close_approach_date_full": "2011-Nov-10 22:40",
            "epoch_date_close_approach": 1320964800000,
            "relative_velocity": {
                "kilometers_per_second": "6.4437580785",
                "kilometers_per_hour": "23197.5290825694",
                "miles_per_hour": "14414.0424457776"
            },
            "miss_distance": {
                "astronomical": "0.0939093156",
                "lunar": "36.5307237684",
                "kilometers": "14048633.586917772",
                "miles": "8729416.1225063736"
            },
            "orbiting_body": "Earth"
        }
    ],
    "orbital_data": {
        "orbit_id": "9",
        "orbit_determination_date": "2017-04-06 08:52:07",
        "first_observation_date": "2011-10-31",
        "last_observation_date": "2011-11-16",
        "data_arc_in_days": 16,
        "observations_used": 30,
        "orbit_uncertainty": "8",
        "minimum_orbit_intersection": ".0921763",
        "jupiter_tisserand_invariant": "4.148",
        "epoch_osculation": "2455870.5",
        "eccentricity": ".3576131280139905",
        "semi_major_axis": "1.676043690347949",
        "inclination": "10.09108725481509",
        "ascending_node_longitude": "41.50422948841251",
        "orbital_period": "792.5495614956454",
        "perihelion_distance": "1.076668463554507",
        "perihelion_argument": "15.47328846131959",
        "aphelion_distance": "2.275418917141391",
        "perihelion_time": "2455886.007927705067",
        "mean_anomaly": "352.9558298369524",
        "mean_motion": ".4542302683514613",
        "equinox": "J2000",
        "orbit_class": {
            "orbit_class_type": "AMO",
            "orbit_class_description": "Near-Earth asteroid orbits similar to that of 1221 Amor",
            "orbit_class_range": "1.017 AU < q (perihelion) < 1.3 AU"
        }
    },
    "is_sentry_object": false
}